[{"OBJECT_NAME":"LEMUR-2-EMERSONROSE","OBJECT_ID":"2025-052BD","EPOCH":"2026-03-09T22:41:34.308672","MEAN_MOTION":14.98235234,"ECCENTRICITY":0.00026118,"INCLINATION":97.701,"RA_OF_ASC_NODE":323.5746,"ARG_OF_PERICENTER":47.547,"MEAN_ANOMALY":312.5973,"EPHEMERIS_TYPE":0,"CLASSIFICATION_TYPE":"U","NORAD_CAT_ID":63261,"ELEMENT_SET_NO":999,"REV_AT_EPOCH":5387,"BSTAR":0.00054278878,"MEAN_MOTION_DOT":6.392e-5,"MEAN_MOTION_DDOT":0},{"OBJECT_NAME":"STARLINK-34483","OBJECT_ID":"2025-126Z","EPOCH":"2026-03-09T22:46:29.340480","MEAN_MOTION":14.98335806,"ECCENTRICITY":0.00030453,"INCLINATION":70.0033,"RA_OF_ASC_NODE":33.6795,"ARG_OF_PERICENTER":257.4364,"MEAN_ANOMALY":102.6455,"EPHEMERIS_TYPE":0,"CLASSIFICATION_TYPE":"U","NORAD_CAT_ID":64367,"ELEMENT_SET_NO":999,"REV_AT_EPOCH":4072,"BSTAR":0.00098677187,"MEAN_MOTION_DOT":0.00011702,"MEAN_MOTION_DDOT":0}]
